[{"OBJECT_NAME":"OBJECT A","OBJECT_ID":"2023-081A","EPOCH":"2026-03-09T22:51:43.391520","MEAN_MOTION":15.22207712,"ECCENTRICITY":0.0001697,"INCLINATION":97.3786,"RA_OF_ASC_NODE":140.8885,"ARG_OF_PERICENTER":111.1602,"MEAN_ANOMALY":248.9816,"EPHEMERIS_TYPE":0,"CLASSIFICATION_TYPE":"U","NORAD_CAT_ID":56846,"ELEMENT_SET_NO":999,"REV_AT_EPOCH":15291,"BSTAR":0.00017652669,"MEAN_MOTION_DOT":3.986e-5,"MEAN_MOTION_DDOT":0},{"OBJECT_NAME":"HJ-2F","OBJECT_ID":"2023-116A","EPOCH":"2026-03-09T22:49:19.583040","MEAN_MOTION":15.20784398,"ECCENTRICITY":0.00100751,"INCLINATION":97.3886,"RA_OF_ASC_NODE":75.9939,"ARG_OF_PERICENTER":41.1134,"MEAN_ANOMALY":319.0859,"EPHEMERIS_TYPE":0,"CLASSIFICATION_TYPE":"U","NORAD_CAT_ID":57519,"ELEMENT_SET_NO":999,"REV_AT_EPOCH":14366,"BSTAR":0.00048860697,"MEAN_MOTION_DOT":0.00010719,"MEAN_MOTION_DDOT":0}]
